#aV2014  9  6  0  0  0.00000000     288 DD+AD WGS84 FIT  NGA
## 1808 518400.00000000   300.00000000 56906 0.0000000000000
+   31     1  2  4  5  6  7  8  9 10 11 12 13 14 15 16 17 18
+         19 20 21 22 23 24 25 26 27 28 29 30 31 32  0  0  0
+          0  0  0  0  0  0  0  0  0  0  0  0  0  0  0  0  0
+          0  0  0  0  0  0  0  0  0  0  0  0  0  0  0  0  0
+          0  0  0  0  0  0  0  0  0  0  0  0  0  0  0  0  0
++         2  2  2  2  2  2  2  2  2  2  2  2  2  2  2  2  2
++         2  2  2  2  2  2  2  2  2  2  2  2  2  2  0  0  0
++         0  0  0  0  0  0  0  0  0  0  0  0  0  0  0  0  0
++         0  0  0  0  0  0  0  0  0  0  0  0  0  0  0  0  0
++         0  0  0  0  0  0  0  0  0  0  0  0  0  0  0  0  0
%c cc cc ccc ccc cccc cccc cccc cccc ccccc ccccc ccccc ccccc
%c cc cc ccc ccc cccc cccc cccc cccc ccccc ccccc ccccc ccccc
%f  0.0000000  0.000000000  0.00000000000  0.000000000000000
%f  0.0000000  0.000000000  0.00000000000  0.000000000000000
%i    0    0    0    0      0      0      0      0         0
%i    0    0    0    0      0      0      0      0         0
/*      NGA, ST. LOUIS,MO.                                  
/*   EPHEMERIS COMPUTED FROM  1 DAYS OF DATA                
/*   EPOCHA SMOOTHER                                       
/* CCCCCCCCCCCCCCCCCCCCCCCCCCCCCCCCCCCCCCCCCCCCCCCCCCCCCCCCC
*  2014  9  6  2  0  0.00000000
P  1 -12827.306369  22739.970618  -4449.989057     20.776962                    
V  1  -5631.929103   2840.336862  31200.809369      0.005743                    
P  2  19339.581267  -7631.916894 -15938.113635    516.781468                    
V  2  -9691.748437  18892.314707 -20896.136953      0.022176                    
P  4  -3873.720676  22568.053202 -13523.025177     -0.488539                    
V  4 -12041.630013  12092.635251  24454.345451     -0.003278                    
P  5  25560.236141  -2574.342186   7050.709921   -342.465272                    
V  5   8647.387174   3810.850597 -29616.512989      0.036924                    
P  6  14774.754835   5129.843253 -21478.023762     -5.120825                    
V  6 -15535.397508  22382.314236  -5357.465881      0.001781                    
P  7  -2318.236079  20983.650451  15977.601281    388.393669                    
V  7 -13764.230003  14966.435075 -22117.921225      0.042928                    
P  8  -4831.034770  20380.256395  16090.662667     15.422693                    
V  8 -14988.378323  13772.654096 -22817.065630      0.001971                    
P  9    -39.312454  23001.062611 -13513.212870     20.374974                    
V  9  -8944.084306 -14625.685322 -24874.116559      0.001420                    
P 10  23524.824508   9356.071024  -9063.453988   -140.823057                    
V 10 -11163.602200   1418.146531 -28203.959092     -0.015468                    
P 11 -11816.316170  22890.811140   5555.330514   -519.033570                    
V 11  -2478.158939  -8947.997834  29128.355112     -0.028813                    
P 12  13674.344746 -11206.844292 -19824.806598    229.972390                    
V 12  24605.030898   4558.592498  14656.555772      0.026494                    
P 13   2765.313091  25251.396894  -7570.640204    -38.566451                    
V 13  -5100.279242  -8312.095515 -30239.579249     -0.038850                    
P 14 -14292.665703 -20184.376846  -9653.936334    137.717322                    
V 14  -2122.310253 -12556.837831  28553.539274     -0.036676                    
P 15   8511.862902 -15502.219490  19672.720731   -201.170168                    
V 15  12622.899761  21964.554044  12112.033967     -0.022157                    
P 16 -25672.151269    714.622432   7411.277283   -196.761923                    
V 16  -8998.186978  -3043.332126 -30289.494364      0.024785                    
P 17  14678.026984  20236.549443  -9040.365944   -121.835675                    
V 17   2282.595884  11756.116202  28950.033954     -0.027256                    
P 18  -9529.925775 -15759.580975  19705.365508    342.918603                    
V 18  24088.911374    876.954118  12330.020791      0.025516                    
P 19 -11532.028033  11074.693539  20963.547375   -477.263901                    
V 19  -9550.638847 -25350.576168   8512.946731     -0.018940                    
P 20  -8055.324021  15092.624880 -20494.643826    230.515021                    
V 20 -25685.254434  -2071.113322   8720.032329      0.044568                    
P 21  -3824.785600 -18768.527655  18878.184476   -382.430702                    
V 21  14791.745856 -17568.487945 -15429.465268     -0.020873                    
P 22 -21563.876071 -10773.626751  11551.696906    265.338213                    
V 22  14598.813678  -1830.786056  25870.670132      0.034686                    
P 23  -2743.224586  21181.725938 -15384.322280    -50.144878                    
V 23 -10293.843283 -17287.723138 -22211.302237     -0.028969                    
P 24  14965.964425 -21868.458882   -564.080370    -34.726093                    
V 24   2897.632879   1193.721545  31708.243760     -0.006020                    
P 25    183.273076 -14938.432178 -22040.990326     22.165859                    
V 25  27609.830768   2746.037348  -1508.830705     -0.008890                    
P 26  14611.821356  -2244.551544  21429.935634    -45.146074                    
V 26   8936.632132  27308.883658  -2867.499532     -0.131566                    
P 27 -16067.133920     49.220056  21144.365647     12.137944                    
V 27 -10442.762626 -24757.818465  -7805.984245      0.031110                    
P 28  17612.397359  13341.591146  15440.546320    382.330149                    
V 28 -18357.315933  -1943.324751  23432.411035      0.025764                    
P 29  -4165.504282 -25145.000362  -7517.431788    558.460390                    
V 29   5624.170267   8081.202807 -29996.907247      0.025086                    
P 30   6896.171813  14680.499193  21021.671580    -58.379395                    
V 30 -17879.369241  19864.670308  -8054.463528     -0.048230                    
P 31 -15672.449573  -3012.270841 -21135.036029    332.014713                    
V 31  16170.474377 -21725.455115  -8529.150745     -0.004042                    
P 32 -20672.560683   6886.261817 -14764.452706   -346.588836                    
V 32 -18227.768450  -6231.047121  23100.589213      0.085015                    
EOF
